0 FENGYUN 1C DEB
1 30845U 99025AWF 13284.20242197  .00000204  00000-0  22101-3 0  7184
2 30845 098.4631 016.5430 0197438 024.3819 035.6780 13.74311266331876
0 FENGYUN 1C DEB
1 30845U 99025AWF 13286.23955924  .00000203  00000-0  22072-3 0  7195
2 30845 098.4634 018.3502 0197349 018.9151 034.4461 13.74311999332156
0 FENGYUN 1C DEB
1 30845U 99025AWF 13288.49794219  .00000297  00000-0  30708-3 0  7203
2 30845 098.4633 020.3535 0197228 012.8415 047.8521 13.74313373332463
0 FENGYUN 1C DEB
1 30845U 99025AWF 13292.21115206  .00000272  00000-0  28483-3 0  7212
2 30845 098.4628 023.6474 0197025 002.8521 059.0753 13.74315436332977
0 FENGYUN 1C DEB
1 30845U 99025AWF 13295.48642655  .00000297  00000-0  30848-3 0  7223
2 30845 098.4631 026.5533 0196891 353.9720 063.6944 13.74317922333426
